OBJECT_NAME,OBJECT_ID,EPOCH,MEAN_MOTION,ECCENTRICITY,INCLINATION,RA_OF_ASC_NODE,ARG_OF_PERICENTER,MEAN_ANOMALY,EPHEMERIS_TYPE,CLASSIFICATION_TYPE,NORAD_CAT_ID,ELEMENT_SET_NO,REV_AT_EPOCH,BSTAR,MEAN_MOTION_DOT,MEAN_MOTION_DDOT
COSMOS 2507 (RODNIK-S 13),2015-050A,2026-06-18T06:41:15.874944,12.42926840,.00101594,82.4931,78.9911,354.6153,5.4816,0,U,40920,999,48699,.61836749E-3,.96E-6,0
COSMOS 2508 (RODNIK-S 14),2015-050B,2026-06-18T05:36:30.688128,12.42914261,.00151558,82.4883,77.5239,24.7147,335.4656,0,U,40921,999,48697,.45177512E-3,.73E-6,0
COSMOS 2509 (RODNIK-S 15),2015-050C,2026-06-18T06:05:50.188704,12.42883811,.00157063,82.4891,77.6137,40.8467,319.3787,0,U,40922,999,48701,.67230005E-3,.103E-5,0
LINGQIAO VIDEO A,2015-057B,2026-06-18T07:26:03.929280,14.77394946,.00151366,97.6617,164.0566,266.5231,93.4249,0,U,40959,999,57557,.98485092E-4,.653E-5,0
LINGQIAO VIDEO B,2015-057C,2026-06-18T06:52:21.527328,14.77501435,.0015288,97.6582,165.1975,266.5649,93.3814,0,U,40960,999,57561,.12801041E-3,.866E-5,0
JILIN-1,2015-057D,2026-06-18T05:33:40.611456,14.78161907,.00153356,97.6508,168.5465,259.2142,100.7343,0,U,40961,999,57576,.9637696E-4,.65E-5,0
FOX-1A (AO-85),2015-058D,2026-06-18T06:59:54.609792,14.90973898,.01305389,64.7760,275.5520,56.1547,305.1908,0,U,40967,999,11373,.17048921E-3,.1807E-4,0
SINOD-D 1,2015-058E,2026-06-18T05:09:19.563264,14.95910862,.01190974,64.7751,255.6947,52.6726,308.5169,0,U,40968,999,11681,.20144944E-3,.2423E-4,0
ELEKTRO-L 2,2015-074A,2026-06-18T00:52:34.633344,1.00270556,.0000903,6.6975,70.5132,256.1704,298.2263,0,U,41105,999,3851,0,-.126E-5,0
DAMPE,2015-078A,2026-06-18T06:42:43.002432,15.30786879,.00137806,97.4550,174.7518,73.6339,286.6415,0,U,41173,999,58471,.28343655E-4,.767E-5,0
ORBCOMM FM110,2015-081D,2026-06-17T22:13:04.647936,14.58881675,.00024948,47.0033,357.9511,80.4208,279.6960,0,U,41182,999,55773,.15044486E-3,.54E-5,0
ORBCOMM FM112,2015-081F,2026-06-18T07:22:02.315136,14.58905836,.00037945,46.9989,264.9521,222.4136,137.6457,0,U,41184,999,55911,.1279563E-3,.434E-5,0
ORBCOMM FM113,2015-081G,2026-06-16T23:34:37.828128,14.58858314,.0002254,47.0010,271.5920,223.6251,136.4456,0,U,41185,999,55890,.95480256E-4,.28E-5,0
ORBCOMM FM108,2015-081J,2026-06-18T00:58:24.502368,14.58870752,.00029879,47.0030,178.1625,224.9174,135.1471,0,U,41187,999,56020,.90814462E-4,.258E-5,0
ORBCOMM FM117,2015-081K,2026-06-18T01:47:22.295904,14.58865755,.00035035,46.9995,176.6350,228.4581,131.6005,0,U,41188,999,56025,.76124628E-4,.188E-5,0
ORBCOMM FM116,2015-081L,2026-06-16T18:05:26.127168,14.58882755,.00005817,47.0020,272.6710,62.4502,297.6443,0,U,41189,999,55887,.13930728E-3,.488E-5,0
HORYU-4,2016-012D,2026-06-18T01:30:03.446496,15.96640257,.00059419,30.9844,72.5998,278.9863,81.0127,0,U,41340,999,57095,.98166813E-3,.440932E-2,.72867516E-4
ZIYUAN 3-02 (ZY 3-02),2016-033A,2026-06-18T02:39:01.751616,15.21488907,.00111509,97.3833,244.8682,286.0471,73.9537,0,U,41556,999,55812,.18916846E-3,.4192E-4,0
CARTOSAT-2C,2016-040A,2026-06-18T07:29:15.294048,15.19199004,.00100124,97.4475,229.2752,127.4565,232.7582,0,U,41599,999,55388,.1656025E-3,.3421E-4,0
LAPAN-A3,2016-040E,2026-06-18T07:13:03.580896,15.33110590,.00107634,97.1489,165.4097,22.1337,338.0368,0,U,41603,999,55498,.89787013E-4,.2801E-4,0
GAOFEN-3,2016-049A,2026-06-18T07:59:12.241248,14.42216337,.00014183,98.4005,177.1017,97.8793,262.2558,0,U,41727,999,51881,.79841244E-4,.22E-5,0
CAS-2T & KS-1Q,2016-066G,2026-06-18T05:02:47.789376,14.44697523,.03428217,98.3822,244.9349,126.3847,236.9490,0,U,41847,999,50494,.20487926E-3,.1412E-4,0
YUNHAI-1 01,2016-068A,2026-06-18T06:48:38.738880,14.32706873,.00061173,98.5824,180.2808,40.3844,319.7793,0,U,41857,999,50198,.15667525E-3,.382E-5,0
RESOURCESAT-2A,2016-074A,2026-06-18T06:24:54.206784,14.21616106,.00033151,98.7528,242.7629,82.1670,277.9883,0,U,41877,999,49445,.3327491E-5,-.37E-6,0
